{
  "norad_id": 56153,
  "name": "PIESAT A",
  "history": [
    {
      "epoch": "2026-03-27T13:07:37.070976Z",
      "apogee_km": 524.4140623252124,
      "perigee_km": 521.8716308297335,
      "latitude_deg": 3.423152900459922e-05,
      "longitude_deg": -107.01826213954789,
      "height_km": 526.7369960897383,
      "semi_major_axis_km": 6901.279846577472,
      "eccentricity": 0.0001842,
      "inclination_deg": 97.5036,
      "raan_deg": 274.8664,
      "arg_perigee_deg": 113.9958,
      "mean_anomaly_deg": 246.1467,
      "mean_motion_rev_day": 15.14287385
    },
    {
      "epoch": "2026-03-30T15:39:52.295904Z",
      "apogee_km": 524.2503190624375,
      "perigee_km": 521.961452846881,
      "latitude_deg": -2.5779058136952143e-06,
      "longitude_deg": -145.07774316818652,
      "height_km": 526.8358758303104,
      "semi_major_axis_km": 6901.242885954659,
      "eccentricity": 0.00016583,
      "inclination_deg": 97.5012,
      "raan_deg": 277.9315,
      "arg_perigee_deg": 124.739,
      "mean_anomaly_deg": 235.3998,
      "mean_motion_rev_day": 15.1429955
    },
    {
      "epoch": "2026-03-31T12:16:52.809312Z",
      "apogee_km": 524.6436425002084,
      "perigee_km": 521.5753483083527,
      "latitude_deg": 4.958176654934539e-05,
      "longitude_deg": -94.33259035125033,
      "height_km": 526.3186197225303,
      "semi_major_axis_km": 6901.246495404281,
      "eccentricity": 0.0002223,
      "inclination_deg": 97.5031,
      "raan_deg": 278.7755,
      "arg_perigee_deg": 94.9707,
      "mean_anomaly_deg": 265.1779,
      "mean_motion_rev_day": 15.14298362
    },
    {
      "epoch": "2026-04-01T13:39:20.874240Z",
      "apogee_km": 524.8069730362449,
      "perigee_km": 521.4170795145392,
      "latitude_deg": -9.586199229831208e-05,
      "longitude_deg": -114.94829926070334,
      "height_km": 525.2514469449806,
      "semi_major_axis_km": 6901.249026275392,
      "eccentricity": 0.0002456,
      "inclination_deg": 97.5017,
      "raan_deg": 279.8188,
      "arg_perigee_deg": 56.4433,
      "mean_anomaly_deg": 303.7032,
      "mean_motion_rev_day": 15.14297529
    },
    {
      "epoch": "2026-04-02T13:26:39.171840Z",
      "apogee_km": 524.318278632687,
      "perigee_km": 521.8949759454017,
      "latitude_deg": 2.3642160913285007e-05,
      "longitude_deg": -111.77800951914975,
      "height_km": 526.2265776983456,
      "semi_major_axis_km": 6901.2436272890445,
      "eccentricity": 0.00017557,
      "inclination_deg": 97.5025,
      "raan_deg": 280.7923,
      "arg_perigee_deg": 92.0311,
      "mean_anomaly_deg": 268.1122,
      "mean_motion_rev_day": 15.14299306
    },
    {
      "epoch": "2026-04-03T13:13:57.619776Z",
      "apogee_km": 524.180145395625,
      "perigee_km": 522.017298120425,
      "latitude_deg": 6.121027893142897e-06,
      "longitude_deg": -108.60323060433349,
      "height_km": 525.7546631508351,
      "semi_major_axis_km": 6901.235721758025,
      "eccentricity": 0.0001567,
      "inclination_deg": 97.5035,
      "raan_deg": 281.7709,
      "arg_perigee_deg": 67.0618,
      "mean_anomaly_deg": 293.0779,
      "mean_motion_rev_day": 15.14301908
    },
    {
      "epoch": "2026-04-04T13:01:16.232736Z",
      "apogee_km": 524.4062216980174,
      "perigee_km": 521.8113532819207,
      "latitude_deg": 1.456747627627019e-05,
      "longitude_deg": -105.43064538788923,
      "height_km": 526.3755772547507,
      "semi_major_axis_km": 6901.245787489968,
      "eccentricity": 0.000188,
      "inclination_deg": 97.5021,
      "raan_deg": 282.748,
      "arg_perigee_deg": 98.4173,
      "mean_anomaly_deg": 261.7272,
      "mean_motion_rev_day": 15.14298595
    },
    {
      "epoch": "2026-04-05T12:48:35.111808Z",
      "apogee_km": 524.3356251297428,
      "perigee_km": 521.9091423304226,
      "latitude_deg": 6.700351009176427e-06,
      "longitude_deg": -102.26397071256946,
      "height_km": 526.692009430786,
      "semi_major_axis_km": 6901.259383730082,
      "eccentricity": 0.0001758,
      "inclination_deg": 97.505,
      "raan_deg": 283.7203,
      "arg_perigee_deg": 113.9418,
      "mean_anomaly_deg": 246.1998,
      "mean_motion_rev_day": 15.1429412
    },
    {
      "epoch": "2026-04-05T12:48:35.112672Z",
      "apogee_km": 524.3359011801176,
      "perigee_km": 521.9088662800468,
      "latitude_deg": 2.517517744064095e-06,
      "longitude_deg": -102.2639737744036,
      "height_km": 526.6921214799911,
      "semi_major_axis_km": 6901.259383730082,
      "eccentricity": 0.00017584,
      "inclination_deg": 97.505,
      "raan_deg": 283.7203,
      "arg_perigee_deg": 113.9418,
      "mean_anomaly_deg": 246.1998,
      "mean_motion_rev_day": 15.1429412
    }
  ]
}